NORAD_CAT_ID,OBJECT_NAME,OBJECT_TYPE,EPOCH,MEAN_MOTION,ECCENTRICITY,INCLINATION,RA_OF_ASC_NODE,ARG_OF_PERICENTER,MEAN_ANOMALY,BSTAR,MEAN_MOTION_DOT,MEAN_MOTION_DDOT,TLE_LINE0,TLE_LINE1,TLE_LINE2,SEMIMAJOR_AXIS,PERIOD,APOGEE,PERIGEE,DECAYED
50190.0,STARLINK-3268,PAYLOAD,2022-02-10 06:00:00,15.73179762,0.0003068,53.2177,99.6903,9.7114,66.3769,0.00012728,0.00017265,0.0,0 STARLINK-3268,1 50190U 21125AL  22041.25001157  .00017265  00000-0  12728-3 0  9990,2 50190  53.2177  99.6903 0003068   9.7114  66.3769 15.73179762 11284,6727.953,91.534,351.88199999999995,347.754,0.0
50190.0,STARLINK-3268,PAYLOAD,2022-02-10 11:46:38,15.73200934,0.0003131,53.2176,98.499,11.140999999999998,348.9679,9.118e-05,0.00012195,0.0,0 STARLINK-3268,1 50190U 21125AL  22041.49071888  .00012195  00000-0  91180-4 0  9991,2 50190  53.2176  98.4990 0003131  11.1410 348.9679 15.73200934 11806,6727.893,91.533,351.86400000000015,347.651,0.0
50190.0,STARLINK-3268,PAYLOAD,2022-02-10 20:00:01,15.73242243,0.0003272,53.2176,96.8042,9.5683,132.189,-6.737e-05,-0.00010087,0.0,0 STARLINK-3268,1 50190U 21125AL  22041.83335648 -.00010087  00000-0 -67370-4 0  9990,2 50190  53.2176  96.8042 0003272   9.5683 132.1890 15.73242243 11374,6727.775,91.531,351.841,347.43800000000016,0.0
50190.0,STARLINK-3268,PAYLOAD,2022-02-10 22:00:00,15.7324265,0.0003193,53.2178,96.3915,9.1471,244.7887,-8.602700000000001e-05,-0.00012704,0.0,0 STARLINK-3268,1 50190U 21125AL  22041.91667824 -.00012704  00000-0 -86027-4 0  9991,2 50190  53.2178  96.3915 0003193   9.1471 244.7887 15.73242650  3686,6727.774,91.531,351.787,347.49,0.0
50190.0,STARLINK-3268,PAYLOAD,2022-02-11 12:10:17,15.73285688,0.0002712,53.2181,93.4699,15.125,344.985,0.00031434,0.00043893,0.0,0 STARLINK-3268,1 50190U 21125AL  22042.50714488  .00043893  00000-0  31434-3 0  9998,2 50190  53.2181  93.4699 0002712  15.1250 344.9850 15.73285688 11483,6727.651,91.528,351.34,347.691,0.0
50190.0,STARLINK-3268,PAYLOAD,2022-02-11 22:00:01,15.73238899,0.0003269,53.2173,91.4429,7.0561,153.918,-0.00031636,-0.00044874,0.0,0 STARLINK-3268,1 50190U 21125AL  22042.91668981 -.00044874  00000-0 -31636-3 0  9995,2 50190  53.2173  91.4429 0003269   7.0561 153.9180 15.73238899 11550,6727.784000000002,91.531,351.849,347.45,0.0
50190.0,STARLINK-3268,PAYLOAD,2022-02-12 06:00:00,15.73226809,0.0003324,53.2176,89.7939,12.5625,237.2829,-0.0010159,-0.0014105,0.0,0 STARLINK-3268,1 50190U 21125AL  22043.25001157 -.00141050  00000-0 -10159-2 0  9999,2 50190  53.2176  89.7939 0003324  12.5625 237.2829 15.73226809 11603,6727.819,91.532,351.92,347.44699999999995,0.0
50190.0,STARLINK-3268,PAYLOAD,2022-02-12 14:00:01,15.73132453,0.0003592,53.2175,88.1461,10.0446,328.7331,-0.00018435,-0.0002634999999999,0.0,0 STARLINK-3268,1 50190U 21125AL  22043.58334491 -.00026350  00000-0 -18435-3 0  9996,2 50190  53.2175  88.1461 0003592  10.0446 328.7331 15.73132453  3703,6728.0880000000025,91.537,352.369,347.536,0.0
50190.0,STARLINK-3268,PAYLOAD,2022-02-12 22:00:00,15.73023118,0.0003313,53.2175,86.4949,6.5481,61.0622,0.0014243,0.00202653,0.0,0 STARLINK-3268,1 50190U 21125AL  22043.91667824  .00202653  00000-0  14243-2 0  9994,2 50190  53.2175  86.4949 0003313   6.5481  61.0622 15.73023118 11701,6728.4,91.543,352.494,348.035,0.0
50190.0,STARLINK-3268,PAYLOAD,2022-02-13 14:00:01,15.73138947,0.0003652,53.2167,83.1984,2.1288,243.2037,0.00055304,0.0007752999999999,0.0,0 STARLINK-3268,1 50190U 21125AL  22044.58334491  .00077530  00000-0  55304-3 0  9997,2 50190  53.2167  83.1984 0003652   2.1288 243.2037 15.73138947 11811,6728.069,91.537,352.391,347.477,0.0
50190.0,STARLINK-3268,PAYLOAD,2022-02-13 22:00:00,15.73205238,0.0003392,53.2173,81.5254,6.5136,327.645,-8.6256e-06,-1.835e-05,0.0,0 STARLINK-3268,1 50190U 21125AL  22044.91667824 -.00001835  00000-0 -86256-5 0  9992,2 50190  53.2173  81.5254 0003392   6.5136 327.6450 15.73205238 11860,6727.88,91.533,352.027,347.463,0.0
50190.0,STARLINK-3268,PAYLOAD,2022-02-14 06:00:00,15.73260944,0.0003498999999999,53.217,79.898,4.382,58.8981,-0.00053019,-0.00074598,0.0,0 STARLINK-3268,1 50190U 21125AL  22045.25001157 -.00074598  00000-0 -53019-3 0  9996,2 50190  53.2170  79.8980 0003499   4.3820  58.8981 15.73260944 11910,6727.721,91.53,351.94,347.232,0.0
50190.0,STARLINK-3268,PAYLOAD,2022-02-14 14:00:01,15.73191415,0.0003728,53.2168,78.2496,3.2713,148.9847,2.9919e-05,3.577e-05,0.0,0 STARLINK-3268,1 50190U 21125AL  22045.58334491  .00003577  00000-0  29919-4 0  9992,2 50190  53.2168  78.2496 0003728   3.2713 148.9847 15.73191415  3690,6727.92,91.534,352.293,347.276,0.0
50190.0,STARLINK-3268,PAYLOAD,2022-02-14 20:00:01,15.73182948,0.0003583,53.2169,77.0108,4.5124,124.4446,-0.00015128,-0.00021792,0.0,0 STARLINK-3268,1 50190U 21125AL  22045.83334491 -.00021792  00000-0 -15128-3 0  9997,2 50190  53.2169  77.0108 0003583   4.5124 124.4446 15.73182948 12007,6727.944,91.534,352.219,347.398,0.0
50190.0,STARLINK-3268,PAYLOAD,2022-02-15 06:00:00,15.73211583,0.0003662,53.2166,74.9496,7.6837,322.4002,-3.2733e-05,-5.219e-05,0.0,0 STARLINK-3268,1 50190U 21125AL  22046.25001157 -.00005219  00000-0 -32733-4 0  9992,2 50190  53.2166  74.9496 0003662   7.6837 322.4002 15.73211583 12076,6727.861999999999,91.533,352.191,347.26300000000015,0.0
50190.0,STARLINK-3268,PAYLOAD,2022-02-15 14:00:01,15.73193688,0.0003832,53.2158,73.3009,5.6676,53.3428,-0.00033729,-0.00047701,0.0,0 STARLINK-3268,1 50190U 21125AL  22046.58334491 -.00047701  00000-0 -33729-3 0  9995,2 50190  53.2158  73.3009 0003832   5.6676  53.3428 15.73193688 12121,6727.913000000001,91.534,352.356,347.2,0.0
50190.0,STARLINK-3268,PAYLOAD,2022-02-15 22:00:01,15.7313128,0.0003542,53.2159,71.6494,5.0295,142.9543,0.00057337,0.00080403,0.0,0 STARLINK-3268,1 50190U 21125AL  22046.91668981  .00080403  00000-0  57337-3 0  9991,2 50190  53.2159  71.6494 0003542   5.0295 142.9543 15.73131280  3684,6728.090999999999,91.537,352.339,347.5730000000001,0.0
50190.0,STARLINK-3268,PAYLOAD,2022-02-16 06:00:00,15.731956599999998,0.0003695,53.2164,70.0005,7.5533,229.2434,5.9095e-05,7.678e-05,0.0,0 STARLINK-3268,1 50190U 21125AL  22047.25001157  .00007678  00000-0  59095-4 0  9992,2 50190  53.2164  70.0005 0003695   7.5533 229.2434 15.73195660 12233,6727.908,91.533,352.259,347.287,0.0
50190.0,STARLINK-3268,PAYLOAD,2022-02-16 14:00:01,15.73211946,0.0003907,53.2162,68.3523,6.7591,318.9742,0.00038539,0.00053858,0.0,0 STARLINK-3268,1 50190U 21125AL  22047.58334491  .00053858  00000-0  38539-3 0  9998,2 50190  53.2162  68.3523 0003907   6.7591 318.9742 15.73211946 12286,6727.861,91.532,352.355,347.098,0.0
50190.0,STARLINK-3268,PAYLOAD,2022-02-16 22:00:00,15.73250517,0.0003653,53.2162,66.7005,7.2389,47.4652,-0.00013725,-0.0001989,0.0,0 STARLINK-3268,1 50190U 21125AL  22047.91667824 -.00019890  00000-0 -13725-3 0  9994,2 50190  53.2162  66.7005 0003653   7.2389  47.4652 15.73250517  3665,6727.751,91.53,352.074,347.159,0.0
50190.0,STARLINK-3268,PAYLOAD,2022-02-17 06:00:00,15.73225494,0.0003804,53.216,65.0523,6.4817,137.2109,0.00012916,0.00017567,0.0,0 STARLINK-3268,1 50190U 21125AL  22048.25001157  .00017567  00000-0  12916-3 0  9991,2 50190  53.2160  65.0523 0003804   6.4817 137.2109 15.73225494 12385,6727.821999999999,91.532,352.247,347.12800000000016,0.0
50190.0,STARLINK-3268,PAYLOAD,2022-02-17 14:00:01,15.73198331,0.0003902,53.2153,63.403,3.8353,228.8335,-1.4811e-05,-2.703e-05,0.0,0 STARLINK-3268,1 50190U 21125AL  22048.58334491 -.00002703  00000-0 -14811-4 0  9992,2 50190  53.2153  63.4030 0003902   3.8353 228.8335 15.73198331 12441,6727.9,91.533,352.39,347.14,0.0
50190.0,STARLINK-3268,PAYLOAD,2022-02-17 22:00:00,15.73170402,0.0003608,53.2157,61.7481,4.4033,317.2008,0.00067813,0.00095541,0.0,0 STARLINK-3268,1 50190U 21125AL  22048.91667824  .00095541  00000-0  67813-3 0  9997,2 50190  53.2157  61.7481 0003608   4.4033 317.2008 15.73170402  3709,6727.98,91.535,352.272,347.417,0.0
50190.0,STARLINK-3268,PAYLOAD,2022-02-18 14:00:01,15.73190763,0.0003932,53.216,58.4542,2.6907,136.7875,0.00016778,0.00022987,0.0,0 STARLINK-3268,1 50190U 21125AL  22049.58334491  .00022987  00000-0  16778-3 0  9990,2 50190  53.2160  58.4542 0003932   2.6907 136.7875 15.73190763  3702,6727.922,91.534,352.432,347.141,0.0
50190.0,STARLINK-3268,PAYLOAD,2022-02-18 20:00:01,15.73211232,0.0003754,53.2162,57.2155,4.5922,111.5837,-0.00018962,-0.00027174,0.0,0 STARLINK-3268,1 50190U 21125AL  22049.83334491 -.00027174  00000-0 -18962-3 0  9990,2 50190  53.2162  57.2155 0003754   4.5922 111.5837 15.73211232 12637,6727.863,91.533,352.254,347.20300000000015,0.0
50190.0,STARLINK-3268,PAYLOAD,2022-02-19 12:00:02,15.731840900000002,0.0004061,53.2157,53.9183,9.09,285.0097,0.00051245,0.00071891,0.0,0 STARLINK-3268,1 50190U 21125AL  22050.50002315  .00071891  00000-0  51245-3 0  9997,2 50190  53.2157  53.9183 0004061   9.0900 285.0097 15.73184090 12741,6727.941,91.534,352.538,347.0730000000001,0.0
50190.0,STARLINK-3268,PAYLOAD,2022-02-19 14:00:01,15.73222589,0.0004018,53.2155,53.5053,9.5893,36.6703,0.00010461,0.00014102,0.0,0 STARLINK-3268,1 50190U 21125AL  22050.58334491  .00014102  00000-0  10461-3 0  9995,2 50190  53.2155  53.5053 0004018   9.5893  36.6703 15.73222589  3660,6727.831,91.532,352.399,346.99300000000005,0.0
50190.0,STARLINK-3268,PAYLOAD,2022-02-19 22:00:00,15.73209982,0.0003679,53.2158,51.854,8.9857,126.2437,2.412e-05,2.765e-05,0.0,0 STARLINK-3268,1 50190U 21125AL  22050.91667824  .00002765  00000-0  24120-4 0  9991,2 50190  53.2158  51.8540 0003679   8.9857 126.2437 15.73209982 12808,6727.8669999999975,91.533,352.207,347.25699999999995,0.0
50190.0,STARLINK-3268,PAYLOAD,2022-02-20 14:00:01,15.73188809,0.0003944,53.2163,48.5565,5.5549,307.5569,0.0001411,0.00019222,0.0,0 STARLINK-3268,1 50190U 21125AL  22051.58334491  .00019222  00000-0  14110-3 0  9999,2 50190  53.2163  48.5565 0003944   5.5549 307.5569 15.73188809  3679,6727.927,91.534,352.446,347.139,0.0
